0 TEVEL 3
1 50988U 22002E   23105.02656205  .00022917  00000-0  98838-3 0  9993
2 50988  97.4383 172.5202 0009630 100.7646 342.7182 15.22509729 69146
0 OBJECT C
1 54684U 22167C   23105.02066016  .00015525  00000-0  89498-3 0  9996
2 54684  97.5510 243.1371 0014446 188.7386 309.2510 15.12384537 19129
0 DIWATA 2B
1 43678U 18084H   23105.00201910  .00001954  00000-0  19270-3 0  9994
2 43678  98.0109 247.7430 0009977  17.5008 342.6566 14.93177884242830
0 ZHUHAI-1 01
1 42761U 17034D   23104.99702403  .00009721  00000-0  50385-3 0  9992
2 42761  43.0149 105.2166 0010810  48.2863 338.2691 15.16266821322057
0 TEVEL 4
1 51063U 22002CH  23104.98260823  .00022678  00000-0  98084-3 0  9996
2 51063  97.4403 172.4922 0009647  98.5757 344.3483 15.22416184 69130
0 ZHUHAI-1 02
1 42759U 17034B   23104.97843728  .00009086  00000-0  47262-3 0  9997
2 42759  43.0157 106.7681 0009846  46.7672 333.7108 15.16209457322043
0 JAS 2
1 24278U 96046B   23104.96963279  .00000003  00000-0  40761-4 0  9994
2 24278  98.5249  92.1535 0349583 220.7674 136.6825 13.53141247316638
0 TEVEL 1
1 51013U 22002AF  23104.96796376  .00022806  00000-0  98486-3 0  9995
2 51013  97.4380 172.4144 0009541  99.9919 338.6106 15.22467425 69135
0 TEVEL 2
1 51069U 22002CP  23104.96176564  .00022783  00000-0  98272-3 0  9994
2 51069  97.4378 172.4303 0009583  99.9961 338.3667 15.22507431 69134
0 XW-3 (CAS 9)
1 50466U 21131B   23104.95912852  .00000982  00000-0  33387-3 0  9996
2 50466  98.5525 186.7039 0003579 344.1751  15.9324 14.38824142 68263
0 XW-2B
1 40911U 15049N   23104.95601148  .00018539  00000-0  71711-3 0  9994
2 40911  97.4942 112.8012 0012070  30.7238  25.4450 15.26195191418711
0 TEVEL 6
1 50999U 22002R   23104.95259831  .00023634  00000-0  99721-3 0  9999
2 50999  97.4379 172.7579 0011007  97.0997  76.3518 15.23234402 69158
0 AO-92
1 43137U 18004AC  23104.94202918  .00043807  00000-0  10389-2 0  9991
2 43137  97.3321 183.6459 0005175  19.8950 340.2498 15.41590601292545
0 XW-2F
1 40910U 15049M   23104.93818970  .00034005  00000-0  10325-2 0  9993
2 40910  97.4673 117.2054 0009510   5.9245  57.3630 15.33965967419183
0 CSS (TIANHE-1)
1 48274U 21035A   23104.92099537  .00046874  00000-0  47135-3 0  9992
2 48274  41.4724 181.4554 0002976 337.5178   1.3346 15.64618135111937
0 TEVEL 8
1 50989U 22002F   23104.84236859  .00022643  00000-0  97864-3 0  9996
2 50989  97.4404 172.3899 0009793 101.0009 325.3061 15.22438884 69111
0 XW-2D
1 40907U 15049J   23104.79339818  .00018828  00000-0  72402-3 0  9992
2 40907  97.4951 112.1619 0012240  29.8447 143.2286 15.26385396418806
0 OSCAR 7
1  7530U 74089B   23104.77095131 -.00000014  00000-0  20019-3 0  9997
2  7530 101.9447  91.0279 0012152 183.3578 351.5902 12.53663280215466
0 XW-2A
1 40903U 15049E   23104.70765578  .00814959  35633-3  10309-2 0  9994
2 40903  97.1075 173.1227 0002896 221.8273 237.5798 16.07571486426390
0 XW-2E
1 40909U 15049L   23104.52585340  .00034120  00000-0  10175-2 0  9999
2 40909  97.4588 117.5700 0008910   7.0314 144.0433 15.34541272419365
0 ES'HAIL 2
1 43700U 18090A   23104.49519150  .00000133  00000-0  00000-0 0  9993
2 43700   0.0141 159.0060 0001314 252.5857 354.8628  1.00271970 16040
0 XW-2C
1 40906U 15049H   23104.49389902  .00015640  00000-0  63180-3 0  9999
2 40906  97.4965 111.4857 0013129  35.8328  85.0086 15.24768576418688
0 SAUDISAT 1C
1 27607U 02058C   23104.46107074  .00002044  00000-0  29566-3 0  9997
2 27607  64.5540 100.2725 0074285 237.4627 121.9286 14.77096679 92817
0 FUNCUBE 1
1 39444U 13066AE  23104.44387278  .00006832  00000-0  76634-3 0  9991
2 39444  97.6661  70.8878 0055344 121.8693 238.7925 14.85982444506174
0 LILACSAT 2
1 40908U 15049K   23104.43072821  .00007983  00000-0  38483-3 0  9993
2 40908  97.5271 107.7025 0015816  57.1344  80.2183 15.18878146418117
0 LAPAN A2
1 40931U 15052B   23104.42370723  .00001442  00000-0  11015-3 0  9990
2 40931   5.9974 181.7372 0012544 110.6485 249.5119 14.77153542407914
0 TEVEL 5
1 50998U 22002Q   23104.42029666  .00023414  00000-0  98894-3 0  9997
2 50998  97.4382 172.2342 0010838  96.9602  31.5511 15.23203410 69078
0 TEVEL 7
1 51062U 22002CG  23104.39530903  .00022536  00000-0  97433-3 0  9999
2 51062  97.4402 171.9235 0009729 102.2945  26.5284 15.22429086 69045
0 ISS (ZARYA)
1 25544U 98067A   23104.37742442  .00016118  00000-0  29188-3 0  9991
2 25544  51.6390 284.7500 0006343 190.9642 251.7871 15.49783077391891
0 AO-95
1 43770U 18099N   23104.36502743  .00006543  00000-0  54212-3 0  9993
2 43770  97.5768 167.6325 0012423 345.8367  14.2506 14.99112958238047
0 BREEZE-KM R/B
1 44909U 19096E   23104.26975162  .00000013  00000-0  14005-4 0  9997
2 44909  82.5261  30.4123 0217129 336.7337  22.4048 12.79719933153986
0 JY1SAT
1 43803U 18099AX  23104.22837192  .00007271  00000-0  58781-3 0  9998
2 43803  97.5748 168.4723 0012736 329.1884  30.8591 15.00021879238108
0 AO-91
1 43017U 17073E   23104.20159607  .00008010  00000-0  57163-3 0  9997
2 43017  97.6387 351.0774 0234668 280.5275  76.9582 14.85213898291684
0 NAYIF 1
1 42017U 17008BX  23104.13405453  .00124056  00000-0  15059-2 0  9995
2 42017  97.2190 173.5433 0004300 218.4141 141.6811 15.60178015343420
0 UVSQ-SAT
1 47438U 21006AB  23104.12094191  .00017310  00000-0  75224-3 0  9997
2 47438  97.3921 162.2198 0008621 309.8279  50.2198 15.22318003122895
0 EYESAT A
1 22825U 93061C   23104.05908866  .00000170  00000-0  83203-4 0  9998
2 22825  98.8489 145.8931 0007397 252.6470 107.3903 14.30281278541122
0 NEXUS
1 43937U 19003F   23104.04129805  .00051566  00000-0  10464-2 0  9998
2 43937  97.0967 132.3197 0016761 145.8707 214.3624 15.46044779236117
0 MT-CUBE-2
1 53106U 22080B   23102.68218782 -.00000003  00000-0  00000-0 0  9991
2 53106  70.1748 342.4876 0008257 200.3328 159.7004  6.42557159 17545
0 XW-4 (CAS-10)
1 54816U 21035C   23072.25043904  .02330371  77621-5  12756-2 0  9996
2 54816  41.5077   9.4914 0017840 162.4710 197.7314 16.18206266 13316
